{
  "type": "FeatureCollection",
  "features": [
    {
      "type": "Feature",
      "properties": {
        "norad_id": 40069,
        "name": "METEOR-M 2",
        "group": "weather",
        "lat": -78.87681044587342,
        "lon": 90.88361976420519,
        "alt_km": 825.3129122674227,
        "timestamp": "2025-12-08T13:49:31.434933+00:00",
        "meta_object_name": "METEOR-M 2",
        "meta_object_id": "2014-037A",
        "meta_epoch": "2025-12-08T05:50:05.737344",
        "meta_mean_motion": 14.21383936,
        "meta_eccentricity": 0.00048594,
        "meta_inclination": 98.4898,
        "meta_ra_of_asc_node": 320.0002,
        "meta_arg_of_pericenter": 223.9667,
        "meta_mean_anomaly": 136.1125,
        "meta_ephemeris_type": 0,
        "meta_classification_type": "U",
        "meta_norad_cat_id": 40069,
        "meta_element_set_no": 999,
        "meta_rev_at_epoch": 59219,
        "meta_bstar": 0.00015747117,
        "meta_mean_motion_dot": 3.02e-06,
        "meta_mean_motion_ddot": 0,
        "tle_line1": "1 40069U 14037A   25342.24312196  .00000302  00000+0  15747-3 0  9999",
        "tle_line2": "2 40069  98.4898 320.0002 0004859 223.9667 136.1125 14.21383936592190"
      },
      "geometry": {
        "type": "Point",
        "coordinates": [
          90.88361976420519,
          -78.87681044587342
        ]
      }
    },
    {
      "type": "Feature",
      "properties": {
        "norad_id": 40267,
        "name": "HIMAWARI-8",
        "group": "weather",
        "lat": -0.01421430657614189,
        "lon": 65.62799639448633,
        "alt_km": 35790.927363224146,
        "timestamp": "2025-12-08T13:49:31.434944+00:00",
        "meta_object_name": "HIMAWARI-8",
        "meta_object_id": "2014-060A",
        "meta_epoch": "2025-12-07T22:51:34.164864",
        "meta_mean_motion": 1.00269403,
        "meta_eccentricity": 0.00013437,
        "meta_inclination": 0.0504,
        "meta_ra_of_asc_node": 135.4496,
        "meta_arg_of_pericenter": 154.0261,
        "meta_mean_anomaly": 271.0486,
        "meta_ephemeris_type": 0,
        "meta_classification_type": "U",
        "meta_norad_cat_id": 40267,
        "meta_element_set_no": 999,
        "meta_rev_at_epoch": 4084,
        "meta_bstar": 0,
        "meta_mean_motion_dot": -2.73e-06,
        "meta_mean_motion_ddot": 0,
        "tle_line1": "1 40267U 14060A   25341.95247876 -.00000273  00000+0  00000+0 0  9994",
        "tle_line2": "2 40267   0.0504 135.4496 0001343 154.0261 271.0486  1.00269403 40841"
      },
      "geometry": {
        "type": "Point",
        "coordinates": [
          65.62799639448633,
          -0.01421430657614189
        ]
      }
    },
    {
      "type": "Feature",
      "properties": {
        "norad_id": 40367,
        "name": "FENGYUN 2G",
        "group": "weather",
        "lat": -3.9669138521681195,
        "lon": 24.7393825143926,
        "alt_km": 35793.45549262383,
        "timestamp": "2025-12-08T13:49:31.434956+00:00",
        "meta_object_name": "FENGYUN 2G",
        "meta_object_id": "2014-090A",
        "meta_epoch": "2025-12-07T19:14:37.154688",
        "meta_mean_motion": 1.00265807,
        "meta_eccentricity": 0.00031202,
        "meta_inclination": 5.1554,
        "meta_ra_of_asc_node": 75.1544,
        "meta_arg_of_pericenter": 196.9461,
        "meta_mean_anomaly": 193.0185,
        "meta_ephemeris_type": 0,
        "meta_classification_type": "U",
        "meta_norad_cat_id": 40367,
        "meta_element_set_no": 999,
        "meta_rev_at_epoch": 4008,
        "meta_bstar": 0,
        "meta_mean_motion_dot": -3e-06,
        "meta_mean_motion_ddot": 0,
        "tle_line1": "1 40367U 14090A   25341.80181892 -.00000300  00000+0  00000+0 0  9998",
        "tle_line2": "2 40367   5.1554  75.1544 0003120 196.9461 193.0185  1.00265807 40088"
      },
      "geometry": {
        "type": "Point",
        "coordinates": [
          24.7393825143926,
          -3.9669138521681195
        ]
      }
    },
    {
      "type": "Feature",
      "properties": {
        "norad_id": 40732,
        "name": "METEOSAT-11 (MSG-4)",
        "group": "weather",
        "lat": -1.852023578814411,
        "lon": -65.69893046168959,
        "alt_km": 35788.713276932765,
        "timestamp": "2025-12-08T13:49:31.434969+00:00",
        "meta_object_name": "METEOSAT-11 (MSG-4)",
        "meta_object_id": "2015-034A",
        "meta_epoch": "2025-12-08T06:47:59.170272",
        "meta_mean_motion": 1.00266103,
        "meta_eccentricity": 9.754e-05,
        "meta_inclination": 2.7242,
        "meta_ra_of_asc_node": 72.0144,
        "meta_arg_of_pericenter": 120.6202,
        "meta_mean_anomaly": 356.0214,
        "meta_ephemeris_type": 0,
        "meta_classification_type": "U",
        "meta_norad_cat_id": 40732,
        "meta_element_set_no": 999,
        "meta_rev_at_epoch": 530,
        "meta_bstar": 0,
        "meta_mean_motion_dot": 6.3e-07,
        "meta_mean_motion_ddot": 0,
        "tle_line1": "1 40732U 15034A   25342.28332373  .00000063  00000+0  00000+0 0  9993",
        "tle_line2": "2 40732   2.7242  72.0144 0000975 120.6202 356.0214  1.00266103  5305"
      },
      "geometry": {
        "type": "Point",
        "coordinates": [
          -65.69893046168959,
          -1.852023578814411
        ]
      }
    },
    {
      "type": "Feature",
      "properties": {
        "norad_id": 41105,
        "name": "ELEKTRO-L 2",
        "group": "weather",
        "lat": -1.8954229598771497,
        "lon": -89.64251966330858,
        "alt_km": 35769.82625154038,
        "timestamp": "2025-12-08T13:49:31.434981+00:00",
        "meta_object_name": "ELEKTRO-L 2",
        "meta_object_id": "2015-074A",
        "meta_epoch": "2025-12-08T01:32:59.339616",
        "meta_mean_motion": 1.00272095,
        "meta_eccentricity": 0.00038959,
        "meta_inclination": 6.2137,
        "meta_ra_of_asc_node": 72.8831,
        "meta_arg_of_pericenter": 202.1976,
        "meta_mean_anomaly": 170.7351,
        "meta_ephemeris_type": 0,
        "meta_classification_type": "U",
        "meta_norad_cat_id": 41105,
        "meta_element_set_no": 999,
        "meta_rev_at_epoch": 3659,
        "meta_bstar": 0,
        "meta_mean_motion_dot": -1.16e-06,
        "meta_mean_motion_ddot": 0,
        "tle_line1": "1 41105U 15074A   25342.06457569 -.00000116  00000+0  00000+0 0  9993",
        "tle_line2": "2 41105   6.2137  72.8831 0003895 202.1976 170.7351  1.00272095 36596"
      },
      "geometry": {
        "type": "Point",
        "coordinates": [
          -89.64251966330858,
          -1.8954229598771497
        ]
      }
    },
    {
      "type": "Feature",
      "properties": {
        "norad_id": 41752,
        "name": "INSAT-3DR",
        "group": "weather",
        "lat": -0.07151020285577125,
        "lon": -0.8661812813294467,
        "alt_km": 35785.637977947415,
        "timestamp": "2025-12-08T13:49:31.434994+00:00",
        "meta_object_name": "INSAT-3DR",
        "meta_object_id": "2016-054A",
        "meta_epoch": "2025-12-08T03:41:02.076000",
        "meta_mean_motion": 1.00270129,
        "meta_eccentricity": 0.00145471,
        "meta_inclination": 0.0808,
        "meta_ra_of_asc_node": 86.9634,
        "meta_arg_of_pericenter": 183.03,
        "meta_mean_anomaly": 296.4413,
        "meta_ephemeris_type": 0,
        "meta_classification_type": "U",
        "meta_norad_cat_id": 41752,
        "meta_element_set_no": 999,
        "meta_rev_at_epoch": 3390,
        "meta_bstar": 0,
        "meta_mean_motion_dot": -7.4e-07,
        "meta_mean_motion_ddot": 0,
        "tle_line1": "1 41752U 16054A   25342.15349625 -.00000074  00000+0  00000+0 0  9996",
        "tle_line2": "2 41752   0.0808  86.9634 0014547 183.0300 296.4413  1.00270129 33905"
      },
      "geometry": {
        "type": "Point",
        "coordinates": [
          -0.8661812813294467,
          -0.07151020285577125
        ]
      }
    },
    {
      "type": "Feature",
      "properties": {
        "norad_id": 41836,
        "name": "HIMAWARI-9",
        "group": "weather",
        "lat": 0.016367592557898297,
        "lon": 65.73017952765284,
        "alt_km": 35791.53080563526,
        "timestamp": "2025-12-08T13:49:31.435006+00:00",
        "meta_object_name": "HIMAWARI-9",
        "meta_object_id": "2016-064A",
        "meta_epoch": "2025-12-08T07:25:27.755328",
        "meta_mean_motion": 1.00270838,
        "meta_eccentricity": 0.00012704,
        "meta_inclination": 0.0159,
        "meta_ra_of_asc_node": 56.3377,
        "meta_arg_of_pericenter": 206.0457,
        "meta_mean_anomaly": 67.0701,
        "meta_ephemeris_type": 0,
        "meta_classification_type": "U",
        "meta_norad_cat_id": 41836,
        "meta_element_set_no": 999,
        "meta_rev_at_epoch": 3329,
        "meta_bstar": 0,
        "meta_mean_motion_dot": -2.72e-06,
        "meta_mean_motion_ddot": 0,
        "tle_line1": "1 41836U 16064A   25342.30934902 -.00000272  00000+0  00000+0 0  9995",
        "tle_line2": "2 41836   0.0159  56.3377 0001270 206.0457  67.0701  1.00270838 33291"
      },
      "geometry": {
        "type": "Point",
        "coordinates": [
          65.73017952765284,
          0.016367592557898297
        ]
      }
    }
  ]
}